     2.100          NAVIGATION                              RINEX VERSION / TYPE
fic2rin                                 10/20/2009 01:13:30 PGM / RUN BY / DATE
                                                            END OF HEADER
23 09 10 19  6  0  0.0  .387296546251D-03 -.454747350886D-12  .000000000000D+00
     .860000000000D+02 -.113250000000D+03  .466948021688D-08  .209689550393D+01
    -.572763383389D-05  .638408772647D-02  .382773578167D-05  .515376410103D+04
     .108000000000D+06  .242143869400D-07 -.925752462289D+00  .208616256714D-06
     .969466426511D+00  .311812500000D+03  .299174761514D+01 -.836749139675D-08
    -.379658671450D-09  .100000000000D+01  .155400000000D+04  .000000000000D+00
     .240000000000D+01  .000000000000D+00 -.200234353542D-07  .860000000000D+02
     .100806000000D+06  .400000000000D+01
24 09 10 19  6  0  0.0  .229675788432D-03  .295585778076D-11  .000000000000D+00
     .150000000000D+02  .727500000000D+02  .437696803257D-08 -.178755530256D+01
     .378675758839D-05  .636355578899D-02  .122953206301D-04  .515367747879D+04
     .108000000000D+06 -.134110450745D-06 -.297672774160D+01  .931322574615D-08
     .950554753461D+00  .139843750000D+03 -.601510339526D+00 -.790568644643D-08
     .139291516336D-10  .100000000000D+01  .155400000000D+04  .000000000000D+00
     .240000000000D+01  .630000000000D+02 -.139698386192D-08  .150000000000D+02
     .100806000000D+06  .400000000000D+01
25 09 10 19  6  0  0.0  .636416953057D-03  .136424205266D-10  .000000000000D+00
     .980000000000D+02 -.775937500000D+02  .404766860164D-08 -.121993819434D+01
    -.410154461861D-05  .112518003443D-01  .125169754028D-04  .515364904785D+04
     .108000000000D+06 -.268220901489D-06  .213787732089D-01 -.298023223877D-07
     .971659867362D+00  .143312500000D+03 -.121471147770D+01 -.788782855972D-08
     .678599694973D-10  .100000000000D+01  .155400000000D+04  .000000000000D+00
     .485000000000D+01  .000000000000D+00 -.745058059692D-08  .980000000000D+02
     .100806000000D+06  .400000000000D+01
26 09 10 19  6  0  0.0  .749900937080D-05 -.147792889038D-11  .000000000000D+00
     .750000000000D+02 -.951250000000D+02  .407802700905D-08 -.426545716141D-01
    -.488385558128D-05  .196734817000D-01  .485964119434D-05  .515361226463D+04
     .108000000000D+06 -.111758708954D-06 -.872953852866D+00  .197440385818D-06
     .991971569106D+00  .304093750000D+03  .103502843149D+01 -.833177562333D-08
    -.355729103259D-09  .100000000000D+01  .155400000000D+04  .000000000000D+00
     .240000000000D+01  .000000000000D+00 -.605359673500D-08  .750000000000D+02
     .100806000000D+06  .400000000000D+01
27 09 10 19  6  0  0.0  .925781205297D-04  .329691829393D-11  .000000000000D+00
     .500000000000D+02 -.867812500000D+02  .389373361821D-08  .286625597145D+01
    -.436045229435D-05  .214336754289D-01  .115372240543D-04  .515373363686D+04
     .108000000000D+06  .398606061935D-06  .582318169489D-01 -.117346644402D-06
     .976445296226D+00  .157218750000D+03 -.153304771825D+01 -.731137597673D-08
     .678599694973D-11  .100000000000D+01  .155400000000D+04  .000000000000D+00
     .240000000000D+01  .000000000000D+00 -.419095158577D-08  .500000000000D+02
     .100806000000D+06  .400000000000D+01
28 09 10 19  6  0  0.0 -.258516520262D-04  .113686837722D-12  .000000000000D+00
     .850000000000D+02  .288125000000D+02  .455911847701D-08 -.243835741158D+01
     .149197876453D-05  .151897380129D-01  .620260834694D-05  .515364471436D+04
     .108000000000D+06  .163912773132D-06  .119325826829D+01 -.912696123123D-07
     .967596634341D+00  .263000000000D+03 -.201461844129D+01 -.774210820417D-08
     .508235455761D-09  .100000000000D+01  .155400000000D+04  .000000000000D+00
     .485000000000D+01  .000000000000D+00 -.102445483208D-07  .850000000000D+02
     .100806000000D+06  .400000000000D+01
30 09 10 19  6  0  0.0  .186042394489D-03  .306954461848D-11  .000000000000D+00
     .600000000000D+01  .378750000000D+02  .487627454498D-08 -.196277866641D+01
     .204332172871D-05  .119355596835D-01  .651739537716D-05  .515365614510D+04
     .108000000000D+06  .186264514923D-06  .111799159393D+01  .119209289551D-06
     .953219248082D+00  .249812500000D+03  .146401617776D+01 -.807533637017D-08
     .423946230491D-09  .100000000000D+01  .155400000000D+04  .000000000000D+00
     .240000000000D+01  .000000000000D+00 -.791624188423D-08  .600000000000D+01
     .100806000000D+06  .400000000000D+01
31 09 10 19  6  0  0.0 -.626780092716D-04  .682121026330D-12  .000000000000D+00
     .760000000000D+02 -.519687500000D+02  .399980946526D-08  .338872387578D+00
    -.277347862720D-05  .721818755846D-02  .124443322420D-04  .515354240990D+04
     .108000000000D+06 -.540167093277D-07  .114102059872D+00 -.856816768646D-07
     .974860007975D+00  .150843750000D+03 -.114839690524D+01 -.777353808478D-08
     .120362156424D-09  .100000000000D+01  .155400000000D+04  .000000000000D+00
     .240000000000D+01  .000000000000D+00 -.130385160446D-07  .760000000000D+02
     .100806000000D+06  .400000000000D+01
32 09 10 19  6  0  0.0  .175080727786D-03 -.727595761418D-11  .000000000000D+00
     .840000000000D+02  .798437500000D+02  .490056127090D-08  .123640026519D+01
     .397115945816D-05  .132674587658D-01  .173412263393D-05  .515368748283D+04
     .108000000000D+06  .242143869400D-06 -.189468353539D+01 -.331550836563D-06
     .961798864703D+00  .347437500000D+03 -.109824724401D+01 -.853499837408D-08
     .372515516767D-09  .100000000000D+01  .155400000000D+04  .000000000000D+00
     .240000000000D+01  .000000000000D+00 -.325962901115D-08  .840000000000D+02
     .100806000000D+06  .400000000000D+01
14 09 10 19  5 59 44.0 -.357883982360D-04  .500222085975D-11  .000000000000D+00
     .600000000000D+01 -.109781250000D+03  .405231165219D-08  .277058719872D+01
    -.571273267269D-05  .503487105016D-02  .421330332756D-05  .515366291618D+04
     .107984000000D+06 -.465661287308D-07 -.890698487407D+00 -.117346644402D-06
     .987569977762D+00  .311031250000D+03 -.213732263063D+01 -.793711632704D-08
    -.379301513716D-09  .100000000000D+01  .155400000000D+04  .000000000000D+00
     .240000000000D+01  .000000000000D+00 -.884756445885D-08  .600000000000D+01
     .102816000000D+06  .400000000000D+01
25 09 10 19  5 59 44.0  .636420212686D-03  .136424205266D-10  .000000000000D+00
     .330000000000D+02 -.775937500000D+02  .404766860164D-08 -.122227196122D+01
    -.410154461861D-05  .112517997622D-01  .125169754028D-04  .515364904785D+04
     .107984000000D+06 -.268220901489D-06  .213789151119D-01 -.298023223877D-07
     .971659889306D+00  .143312500000D+03 -.121471144698D+01 -.788782855972D-08
     .678599694973D-10  .100000000000D+01  .155400000000D+04  .000000000000D+00
     .240000000000D+01  .000000000000D+00 -.745058059692D-08  .330000000000D+02
     .103266000000D+06  .400000000000D+01
28 09 10 19  5 59 44.0 -.258502550423D-04  .113686837722D-12  .000000000000D+00
     .300000000000D+01  .288125000000D+02  .455911847701D-08 -.244069119309D+01
     .149197876453D-05  .151897344040D-01  .620260834694D-05  .515364471054D+04
     .107984000000D+06  .163912773132D-06  .119325839849D+01 -.912696123123D-07
     .967596605082D+00  .263000000000D+03 -.201461837838D+01 -.774210820417D-08
     .508235455761D-09  .100000000000D+01  .155400000000D+04  .000000000000D+00
     .240000000000D+01  .000000000000D+00 -.102445483208D-07  .300000000000D+01
     .105696000000D+06  .400000000000D+01
 2 09 10 19  5 59 44.0  .182434916496D-03  .375166564481D-11  .000000000000D+00
     .300000000000D+01  .646875000000D+02  .447625788268D-08  .219386206056D+01
     .333786010742D-05  .911828817334D-02  .127591192722D-04  .515373610497D+04
     .107984000000D+06 -.521540641785D-07 -.304165705937D+01  .132247805595D-06
     .941219400675D+00  .117156250000D+03  .290598833202D+01 -.791068665471D-08
    -.240009997380D-09  .100000000000D+01  .155400000000D+04  .000000000000D+00
     .240000000000D+01  .000000000000D+00 -.172294676304D-07  .300000000000D+01
     .106956000000D+06  .400000000000D+01
 2 09 10 19  7 59 44.0  .182461924851D-03  .375166564481D-11  .000000000000D+00
     .400000000000D+01  .808437500000D+02  .444554231754D-08 -.303906682833D+01
     .427849590778D-05  .912025070284D-02  .129081308842D-04  .515373200035D+04
     .115184000000D+06 -.130385160446D-06 -.304171412635D+01  .745058059692D-08
     .941218364929D+00  .115000000000D+03  .290587598138D+01 -.780353933445D-08
    -.166078346401D-09  .100000000000D+01  .155400000000D+04  .000000000000D+00
     .240000000000D+01  .000000000000D+00 -.172294676304D-07  .400000000000D+01
     .108006000000D+06  .400000000000D+01
14 09 10 19  7 59 44.0 -.357525423169D-04  .500222085975D-11  .000000000000D+00
     .700000000000D+01 -.110531250000D+03  .412017162169D-08 -.246250833701D+01
    -.571645796299D-05  .503563100938D-02  .379420816898D-05  .515366137123D+04
     .115184000000D+06  .134110450745D-06 -.890756724713D+00 -.372529029846D-07
     .987567536152D+00  .318937500000D+03 -.213722752047D+01 -.800890503161D-08
    -.231438211759D-09  .100000000000D+01  .155400000000D+04  .000000000000D+00
     .240000000000D+01  .000000000000D+00 -.884756445885D-08  .700000000000D+01
     .108006000000D+06  .400000000000D+01
25 09 10 19  7 59 44.0  .636518467218D-03  .136424205266D-10  .000000000000D+00
     .340000000000D+02 -.738750000000D+02  .415838749925D-08 -.172083208734D+00
    -.384636223316D-05  .112506967271D-01  .121369957924D-04  .515364737129D+04
     .115184000000D+06 -.108033418655D-06  .213213097867D-01 -.800937414169D-07
     .971660631005D+00  .154468750000D+03 -.121470733325D+01 -.795783147562D-08
     .143934566881D-09  .100000000000D+01  .155400000000D+04  .000000000000D+00
     .240000000000D+01  .000000000000D+00 -.745058059692D-08  .340000000000D+02
     .108006000000D+06  .400000000000D+01
